MONITOR-2 (RS39S)       
1 57184U 23091U   25101.85432026  .00009021  00000+0  50466-3 0  9994
2 57184  97.5672 157.8911 0013379 161.5222 198.6498 15.13617838 98596
SVYATOBOR 1 (RS60S)     
1 57187U 23091X   25101.86730228  .00013549  00000+0  67237-3 0  9997
2 57187  97.5675 159.5691 0012576 154.7501 205.4349 15.17756992 98702
VIZARD-METEO (RS38S)    
1 57189U 23091Z   25101.85129507  .00020371  00000+0  89698-3 0  9996
2 57189  97.5662 161.0552 0011268 149.6274 210.5617 15.21813880 98802
NANOZOND 1 (RS49S)      
1 57190U 23091AA  25101.81357191  .00039269  00000+0  12680-2 0  9998
2 57190  97.5616 163.9377 0008908 148.5011 211.6765 15.31975036 99005
POLYTECH-UNIVERSE 3 (R*)
1 57191U 23091AB  25101.85706886  .00009019  00000+0  50289-3 0  9990
2 57191  97.5642 157.4570 0017739 178.9434 181.1838 15.13677924 98585
UTMN 2 (RS27S)          
1 57203U 23091AP  25101.82817111  .00018155  00000+0  83687-3 0  9994
2 57203  97.5664 160.4674 0011739 150.7736 209.4157 15.20262132 98766
ARCCUBE 1 (RS25S)       
1 57205U 23091AR  25101.81658626  .00063473  00000+0  16241-2 0  9993
2 57205  97.5539 165.3485 0008132 149.4803 210.6917 15.39163291 99110
KUZGTU 1 (RS47S)        
1 57217U 23091AV  25101.87428736  .00016682  00000+0  80393-3 0  9999
2 57217  97.5652 159.0773 0015054 163.7713 196.4006 15.18702092 98685
SONATE-2                
1 59112U 24043Q   25100.96410015  .00028872  00000+0  89770-3 0  9995
2 59112  97.5043 231.0804 0010549 327.4862  32.5729 15.33235866 61194
MESAT1                  
1 60209U 24125G   25101.31635737  .00031923  00000+0  97825-3 0  9996
2 60209  97.2875 313.6712 0019275 354.2778   5.8242 15.33544599 42869
OOV-CUBE (TUBSAT-30)    
1 60240U 24128F   25101.80308933  .00005505  00000+0  44900-3 0  9996
2 60240  61.9958 286.4543 0045708  41.2742 319.1787 14.99825157 41347
COLIBRI-S (RS67S)       
1 61746U 24199M   25101.81121462  .00022132  00000+0  74466-3 0  9992
2 61746  97.3663 330.8645 0013693  40.2588 319.9664 15.30714459 71092
HORS 3 (RS81S)          
1 61753U 24199U   25101.91212726  .00027174  00000+0  88797-3 0  9998
2 61753  97.3633 330.9766 0012200  47.3219 312.9048 15.31635288 71119
HORS 4 (RS82S)          
1 61754U 24199V   25101.87653625  .00027408  00000+0  87847-3 0  9996
2 61754  97.3627 331.0190 0012261  48.1236 312.1050 15.32254149 71110
HORIZON (RS59S)         
1 61757U 24199Y   25101.90531459  .00036729  00000+0  10952-2 0  9991
2 61757  97.3656 331.3374 0012444  38.0756 322.1364 15.34489059 71133
SIT-2086                
1 61764U 24199AF  25101.87110914  .00029365  00000+0  91377-3 0  9993
2 61764  97.3633 331.1837 0010674  49.3902 310.8267 15.33203050 67965
MORDOVIA-IOT (RS50S)    
1 61765U 24199AG  25101.89234671  .00048995  00000+0  13350-2 0  9997
2 61765  97.3643 331.6510 0011624  35.3144 324.8869 15.37257388 68005
RUZAEVKA 390 (RS44S)    
1 61766U 24199AH  25101.86257383  .00044422  00000+0  12468-2 0  9990
2 61766  97.3641 331.5350 0011664  35.3081 324.8933 15.36357593 67996
HYPERVIEW 1G (RS66S)    
1 61772U 24199AP  25101.84509839  .00033059  00000+0  10467-2 0  9992
2 61772  97.3631 330.9085 0015585  49.3248 310.9346 15.32561301 67956
ALTAIR (RS65S)          
1 61779U 24199AW  25101.87852211  .00013810  00000+0  51042-3 0  9995
2 61779  97.3646 330.4340 0017236  50.3854 309.8904 15.27692983 71078
ASRTU-1 (AO-123)        
1 61781U 24199AY  25101.90043866  .00012483  00000+0  46666-3 0  9991
2 61781  97.3640 330.3974 0017483  50.4215 309.8565 15.27337731 67922
TUSUR GO (RS78S)        
1 61782U 24199AZ  25101.85723162  .00040201  00000+0  12477-2 0  9991
2 61782  97.3627 330.8932 0016159  48.6087 311.6541 15.33145860 67957
SAMSAT-IONOSPHERE (RS7*)
1 61784U 24199BB  25101.86780060  .00027960  00000+0  92908-3 0  9999
2 61784  97.3635 330.7362 0016770  49.4334 310.8363 15.31023989 71095
RTU MIREA 1 (RS51S)     
1 61785U 24199BC  25101.85458135  .00030290  00000+0  99646-3 0  9990
2 61785  97.3634 330.7528 0016546  48.9369 311.3299 15.31335213 67941
HADES-R                 
1 62690U 25009CK  25100.77659128  .00051436  00000+0  21092-2 0  9996
2 62690  97.4125 182.0162 0002465 261.3717  98.7241 15.24071126 13023
